[{"OBJECT_NAME":"SHIYAN-30 02","OBJECT_ID":"2025-222B","EPOCH":"2026-03-09T20:48:28.945152","MEAN_MOTION":14.93183187,"ECCENTRICITY":0.00052159,"INCLINATION":34.9961,"RA_OF_ASC_NODE":137.653,"ARG_OF_PERICENTER":257.9316,"MEAN_ANOMALY":102.0805,"EPHEMERIS_TYPE":0,"CLASSIFICATION_TYPE":"U","NORAD_CAT_ID":65852,"ELEMENT_SET_NO":999,"REV_AT_EPOCH":2417,"BSTAR":0.0003172838,"MEAN_MOTION_DOT":3.351e-5,"MEAN_MOTION_DDOT":0},{"OBJECT_NAME":"FENGYUN 1C DEB","OBJECT_ID":"1999-025DRB","EPOCH":"2026-03-08T17:06:23.542272","MEAN_MOTION":14.91461657,"ECCENTRICITY":0.00586124,"INCLINATION":98.8697,"RA_OF_ASC_NODE":161.9577,"ARG_OF_PERICENTER":340.9686,"MEAN_ANOMALY":18.9339,"EPHEMERIS_TYPE":0,"CLASSIFICATION_TYPE":"U","NORAD_CAT_ID":35243,"ELEMENT_SET_NO":999,"REV_AT_EPOCH":92280,"BSTAR":0.0026680093,"MEAN_MOTION_DOT":0.00027599,"MEAN_MOTION_DDOT":0}]
